CCSDS_OMM_VERS = 2.0
CREATION_DATE  = 
ORIGINATOR     = 

OBJECT_NAME    = UNKNOWN
OBJECT_ID      = 
CENTER_NAME    = EARTH
REF_FRAME      = TEME
TIME_SYSTEM    = UTC
MEAN_ELEMENT_THEORY = SGP/SGP4

EPOCH          = 2025-12-10T02:22:07.924512
MEAN_MOTION    = 13.54536301
ECCENTRICITY   = .0108511
INCLINATION    = 99.4343
RA_OF_ASC_NODE = 38.0500
ARG_OF_PERICENTER = 313.8038
MEAN_ANOMALY   = 45.4164

EPHEMERIS_TYPE = 0
CLASSIFICATION_TYPE = U
NORAD_CAT_ID   = 82311
ELEMENT_SET_NO = 999
REV_AT_EPOCH   = 54996
BSTAR          = .13268E-2
MEAN_MOTION_DOT = .899E-5
MEAN_MOTION_DDOT = 0

CCSDS_OMM_VERS = 2.0
CREATION_DATE  = 
ORIGINATOR     = 

OBJECT_NAME    = UNKNOWN
OBJECT_ID      = 
CENTER_NAME    = EARTH
REF_FRAME      = TEME
TIME_SYSTEM    = UTC
MEAN_ELEMENT_THEORY = SGP/SGP4

EPOCH          = 2025-12-11T23:59:45.158208
MEAN_MOTION    = 13.15607013
ECCENTRICITY   = .0456616
INCLINATION    = 66.9349
RA_OF_ASC_NODE = 195.5463
ARG_OF_PERICENTER = 166.2400
MEAN_ANOMALY   = 195.1592

EPHEMERIS_TYPE = 0
CLASSIFICATION_TYPE = U
NORAD_CAT_ID   = 82363
ELEMENT_SET_NO = 999
REV_AT_EPOCH   = 29016
BSTAR          = -.59816E-4
MEAN_MOTION_DOT = -.1E-5
MEAN_MOTION_DDOT = 0

CCSDS_OMM_VERS = 2.0
CREATION_DATE  = 
ORIGINATOR     = 

OBJECT_NAME    = UNKNOWN
OBJECT_ID      = 
CENTER_NAME    = EARTH
REF_FRAME      = TEME
TIME_SYSTEM    = UTC
MEAN_ELEMENT_THEORY = SGP/SGP4

EPOCH          = 2025-12-13T07:39:27.837216
MEAN_MOTION    = 13.98166261
ECCENTRICITY   = .0082817
INCLINATION    = 98.8983
RA_OF_ASC_NODE = 2.3729
ARG_OF_PERICENTER = 337.8286
MEAN_ANOMALY   = 21.9304

EPHEMERIS_TYPE = 0
CLASSIFICATION_TYPE = U
NORAD_CAT_ID   = 82369
ELEMENT_SET_NO = 999
REV_AT_EPOCH   = 55725
BSTAR          = .3209E-3
MEAN_MOTION_DOT = .427E-5
MEAN_MOTION_DDOT = 0

CCSDS_OMM_VERS = 2.0
CREATION_DATE  = 
ORIGINATOR     = 

OBJECT_NAME    = UNKNOWN
OBJECT_ID      = 
CENTER_NAME    = EARTH
REF_FRAME      = TEME
TIME_SYSTEM    = UTC
MEAN_ELEMENT_THEORY = SGP/SGP4

EPOCH          = 2025-12-13T10:36:48.186432
MEAN_MOTION    = 14.80798797
ECCENTRICITY   = .0008553
INCLINATION    = 98.3953
RA_OF_ASC_NODE = 212.2297
ARG_OF_PERICENTER = 112.8817
MEAN_ANOMALY   = 247.3298

EPHEMERIS_TYPE = 0
CLASSIFICATION_TYPE = U
NORAD_CAT_ID   = 82381
ELEMENT_SET_NO = 999
REV_AT_EPOCH   = 51091
BSTAR          = .5617E-2
MEAN_MOTION_DOT = .43538E-3
MEAN_MOTION_DDOT = 0

CCSDS_OMM_VERS = 2.0
CREATION_DATE  = 
ORIGINATOR     = 

OBJECT_NAME    = UNKNOWN
OBJECT_ID      = 
CENTER_NAME    = EARTH
REF_FRAME      = TEME
TIME_SYSTEM    = UTC
MEAN_ELEMENT_THEORY = SGP/SGP4

EPOCH          = 2025-12-11T10:32:42.548640
MEAN_MOTION    = 15.03467303
ECCENTRICITY   = .0008538
INCLINATION    = 86.6650
RA_OF_ASC_NODE = 156.1651
ARG_OF_PERICENTER = 154.6478
MEAN_ANOMALY   = 205.5177

EPHEMERIS_TYPE = 0
CLASSIFICATION_TYPE = U
NORAD_CAT_ID   = 82402
ELEMENT_SET_NO = 999
REV_AT_EPOCH   = 45427
BSTAR          = .86578E-3
MEAN_MOTION_DOT = .11834E-3
MEAN_MOTION_DDOT = 0

CCSDS_OMM_VERS = 2.0
CREATION_DATE  = 
ORIGINATOR     = 

OBJECT_NAME    = UNKNOWN
OBJECT_ID      = 
CENTER_NAME    = EARTH
REF_FRAME      = TEME
TIME_SYSTEM    = UTC
MEAN_ELEMENT_THEORY = SGP/SGP4

EPOCH          = 2025-12-05T07:44:44.191680
MEAN_MOTION    = 13.77237008
ECCENTRICITY   = .0056993
INCLINATION    = 66.6579
RA_OF_ASC_NODE = 356.8028
ARG_OF_PERICENTER = 41.8292
MEAN_ANOMALY   = 318.7113

EPHEMERIS_TYPE = 0
CLASSIFICATION_TYPE = U
NORAD_CAT_ID   = 82410
ELEMENT_SET_NO = 999
REV_AT_EPOCH   = 58571
BSTAR          = .28804E-3
MEAN_MOTION_DOT = .214E-5
MEAN_MOTION_DDOT = 0

CCSDS_OMM_VERS = 2.0
CREATION_DATE  = 
ORIGINATOR     = 

OBJECT_NAME    = UNKNOWN
OBJECT_ID      = 
CENTER_NAME    = EARTH
REF_FRAME      = TEME
TIME_SYSTEM    = UTC
MEAN_ELEMENT_THEORY = SGP/SGP4

EPOCH          = 2025-12-11T10:12:30.388608
MEAN_MOTION    = 14.58552150
ECCENTRICITY   = .0054835
INCLINATION    = 74.0076
RA_OF_ASC_NODE = 343.0937
ARG_OF_PERICENTER = 149.1195
MEAN_ANOMALY   = 211.3215

EPHEMERIS_TYPE = 0
CLASSIFICATION_TYPE = U
NORAD_CAT_ID   = 82432
ELEMENT_SET_NO = 999
REV_AT_EPOCH   = 48271
BSTAR          = .65763E-3
MEAN_MOTION_DOT = .3093E-4
MEAN_MOTION_DDOT = 0

CCSDS_OMM_VERS = 2.0
CREATION_DATE  = 
ORIGINATOR     = 

OBJECT_NAME    = UNKNOWN
OBJECT_ID      = 
CENTER_NAME    = EARTH
REF_FRAME      = TEME
TIME_SYSTEM    = UTC
MEAN_ELEMENT_THEORY = SGP/SGP4

EPOCH          = 2025-12-12T14:53:02.992992
MEAN_MOTION    = 15.03714590
ECCENTRICITY   = .0006699
INCLINATION    = 85.8747
RA_OF_ASC_NODE = 199.3944
ARG_OF_PERICENTER = 263.7443
MEAN_ANOMALY   = 96.3027

EPHEMERIS_TYPE = 0
CLASSIFICATION_TYPE = U
NORAD_CAT_ID   = 82448
ELEMENT_SET_NO = 999
REV_AT_EPOCH   = 43702
BSTAR          = .62855E-3
MEAN_MOTION_DOT = .8651E-4
MEAN_MOTION_DDOT = 0

CCSDS_OMM_VERS = 2.0
CREATION_DATE  = 
ORIGINATOR     = 

OBJECT_NAME    = UNKNOWN
OBJECT_ID      = 
CENTER_NAME    = EARTH
REF_FRAME      = TEME
TIME_SYSTEM    = UTC
MEAN_ELEMENT_THEORY = SGP/SGP4

EPOCH          = 2025-12-12T08:26:54.569472
MEAN_MOTION    = 12.39702262
ECCENTRICITY   = .009329
INCLINATION    = 102.1782
RA_OF_ASC_NODE = 302.7218
ARG_OF_PERICENTER = 207.9087
MEAN_ANOMALY   = 151.6952

EPHEMERIS_TYPE = 0
CLASSIFICATION_TYPE = U
NORAD_CAT_ID   = 82453
ELEMENT_SET_NO = 999
REV_AT_EPOCH   = 54601
BSTAR          = .47101E-3
MEAN_MOTION_DOT = .18E-6
MEAN_MOTION_DDOT = 0

CCSDS_OMM_VERS = 2.0
CREATION_DATE  = 
ORIGINATOR     = 

OBJECT_NAME    = UNKNOWN
OBJECT_ID      = 
CENTER_NAME    = EARTH
REF_FRAME      = TEME
TIME_SYSTEM    = UTC
MEAN_ELEMENT_THEORY = SGP/SGP4

EPOCH          = 2025-12-13T07:59:16.139616
MEAN_MOTION    = 13.55797123
ECCENTRICITY   = .0044793
INCLINATION    = 99.3563
RA_OF_ASC_NODE = 8.9285
ARG_OF_PERICENTER = 192.8738
MEAN_ANOMALY   = 167.1260

EPHEMERIS_TYPE = 0
CLASSIFICATION_TYPE = U
NORAD_CAT_ID   = 82484
ELEMENT_SET_NO = 999
REV_AT_EPOCH   = 59071
BSTAR          = .49256E-3
MEAN_MOTION_DOT = .304E-5
MEAN_MOTION_DDOT = 0

CCSDS_OMM_VERS = 2.0
CREATION_DATE  = 
ORIGINATOR     = 

OBJECT_NAME    = UNKNOWN
OBJECT_ID      = 
CENTER_NAME    = EARTH
REF_FRAME      = TEME
TIME_SYSTEM    = UTC
MEAN_ELEMENT_THEORY = SGP/SGP4

EPOCH          = 2025-12-12T12:43:57.208800
MEAN_MOTION    = 14.85955152
ECCENTRICITY   = .0002231
INCLINATION    = 74.0083
RA_OF_ASC_NODE = 22.2418
ARG_OF_PERICENTER = 212.5247
MEAN_ANOMALY   = 147.5796

EPHEMERIS_TYPE = 0
CLASSIFICATION_TYPE = U
NORAD_CAT_ID   = 82494
ELEMENT_SET_NO = 999
REV_AT_EPOCH   = 8493
BSTAR          = .27265E-2
MEAN_MOTION_DOT = .23857E-3
MEAN_MOTION_DDOT = 0

CCSDS_OMM_VERS = 2.0
CREATION_DATE  = 
ORIGINATOR     = 

OBJECT_NAME    = UNKNOWN
OBJECT_ID      = 
CENTER_NAME    = EARTH
REF_FRAME      = TEME
TIME_SYSTEM    = UTC
MEAN_ELEMENT_THEORY = SGP/SGP4

EPOCH          = 2025-12-13T09:31:22.055520
MEAN_MOTION    = 14.18503161
ECCENTRICITY   = .0113577
INCLINATION    = 70.9678
RA_OF_ASC_NODE = 2.4621
ARG_OF_PERICENTER = 115.7224
MEAN_ANOMALY   = 245.5678

EPHEMERIS_TYPE = 0
CLASSIFICATION_TYPE = U
NORAD_CAT_ID   = 82500
ELEMENT_SET_NO = 999
REV_AT_EPOCH   = 61904
BSTAR          = .20544E-2
MEAN_MOTION_DOT = .4485E-4
MEAN_MOTION_DDOT = 0

