UNKNOWN                 
1 82311U          25344.09870283  .00000899  00000+0  13268-2 0  9997
2 82311  99.4343  38.0500 0108511 313.8038  45.4164 13.54536301549965
UNKNOWN                 
1 82363U          25345.99982822 -.00000100  00000+0 -59816-4 0  9995
2 82363  66.9349 195.5463 0456616 166.2400 195.1592 13.15607013290168
UNKNOWN                 
1 82369U          25347.31907219  .00000427  00000+0  32090-3 0  9990
2 82369  98.8983   2.3729 0082817 337.8286  21.9304 13.98166261557257
UNKNOWN                 
1 82381U          25347.44222438  .00043538  00000+0  56170-2 0  9995
2 82381  98.3953 212.2297 0008553 112.8817 247.3298 14.80798797510916
UNKNOWN                 
1 82402U          25345.43938135  .00011834  00000+0  86578-3 0  9994
2 82402  86.6650 156.1651 0008538 154.6478 205.5177 15.03467303454274
UNKNOWN                 
1 82410U          25339.32273370  .00000214  00000+0  28804-3 0  9995
2 82410  66.6579 356.8028 0056993  41.8292 318.7113 13.77237008585714
UNKNOWN                 
1 82432U          25345.42535172  .00003093  00000+0  65763-3 0  9991
2 82432  74.0076 343.0937 0054835 149.1195 211.3215 14.58552150482712
UNKNOWN                 
1 82448U          25346.62017353  .00008651  00000+0  62855-3 0  9991
2 82448  85.8747 199.3944 0006699 263.7443  96.3027 15.03714590437023
UNKNOWN                 
1 82453U          25346.35202048  .00000018  00000+0  47101-3 0  9990
2 82453 102.1782 302.7218 0093290 207.9087 151.6952 12.39702262546013
UNKNOWN                 
1 82484U          25347.33282569  .00000304  00000+0  49256-3 0  9990
2 82484  99.3563   8.9285 0044793 192.8738 167.1260 13.55797123590718
UNKNOWN                 
1 82494U          25346.53052325  .00023857  00000+0  27265-2 0  9990
2 82494  74.0083  22.2418 0002231 212.5247 147.5796 14.85955152 84939
UNKNOWN                 
1 82500U          25347.39678305  .00004485  00000+0  20544-2 0  9994
2 82500  70.9678   2.4621 0113577 115.7224 245.5678 14.18503161619042
